ONEWEB-0517             
1 54135U 22138Y   24050.13023596  .00000078  00000+0  16334-3 0  9998
2 54135  87.9159 113.9899 0002310  99.2069 260.9325 13.19724858 65714
ONEWEB-0518             
1 54136U 22138Z   24050.45245813  .00000069  00000+0  14080-3 0  9998
2 54136  87.9165 113.9315 0002100 103.4228 256.7139 13.19725475 65753
ONEWEB-0519             
1 54137U 22138AA  24049.87119367  .00000037  00000+0  59906-4 0  9999
2 54137  87.9158 114.0385 0002432 100.5768 259.5639 13.19725875 64816
ONEWEB-0520             
1 54138U 22138AB  24049.90594235  .00000042  00000+0  73236-4 0  9993
2 54138  87.9161 114.0338 0002410  90.9380 269.2029 13.19725530 64805
ONEWEB-0521             
1 54139U 22138AC  24050.46983089  .00000036  00000+0  57810-4 0  9999
2 54139  87.9156 113.9163 0002028 109.2330 250.9022 13.19725108 65721
ONEWEB-0522             
1 54140U 22138AD  24049.91857986  .00000094  00000+0  20316-3 0  9999
2 54140  87.9157 114.0281 0001970  96.2792 263.8565 13.19724350 64798
ONEWEB-0523             
1 54141U 22138AE  24049.64534345  .00000100  00000+0  21512-3 0  9998
2 54141  87.9136  83.5253 0001174 116.9945 243.1308 13.20769903 67166
ONEWEB-0524             
1 54142U 22138AF  24050.16459476 -.00000001  00000+0 -33316-4 0  9997
2 54142  87.9134  83.4257 0001181  57.9088 302.2160 13.20771254 68108
